{
    "links": {
        "self": "http://www.neowsapp.com/rest/v1/neo/3825626?api_key=iIulBulltgU6a56xZRHN4H3l9WmuAYTsLGpBGhQ2"
    },
    "id": "3825626",
    "neo_reference_id": "3825626",
    "name": "(2018 NV3)",
    "designation": "2018 NV3",
    "nasa_jpl_url": "http://ssd.jpl.nasa.gov/sbdb.cgi?sstr=3825626",
    "absolute_magnitude_h": 24.3,
    "estimated_diameter": {
        "kilometers": {
            "estimated_diameter_min": 0.0366906138,
            "estimated_diameter_max": 0.0820427065
        },
        "meters": {
            "estimated_diameter_min": 36.6906137531,
            "estimated_diameter_max": 82.0427064882
        },
        "miles": {
            "estimated_diameter_min": 0.0227984834,
            "estimated_diameter_max": 0.0509789586
        },
        "feet": {
            "estimated_diameter_min": 120.3760332259,
            "estimated_diameter_max": 269.1689931548
        }
    },
    "is_potentially_hazardous_asteroid": false,
    "close_approach_data": [
        {
            "close_approach_date": "2018-07-14",
            "close_approach_date_full": "2018-Jul-14 06:34",
            "epoch_date_close_approach": 1531550040000,
            "relative_velocity": {
                "kilometers_per_second": "7.3179837237",
                "kilometers_per_hour": "26344.7414053576",
                "miles_per_hour": "16369.5977915679"
            },
            "miss_distance": {
                "astronomical": "0.1176515066",
                "lunar": "45.7664360674",
                "kilometers": "17600414.789650942",
                "miles": "10936390.6231173196"
            },
            "orbiting_body": "Earth"
        }
    ],
    "orbital_data": {
        "orbit_id": "4",
        "orbit_determination_date": "2018-08-07 07:00:32",
        "first_observation_date": "2018-07-09",
        "last_observation_date": "2018-08-06",
        "data_arc_in_days": 28,
        "observations_used": 22,
        "orbit_uncertainty": "7",
        "minimum_orbit_intersection": ".103794",
        "jupiter_tisserand_invariant": "3.342",
        "epoch_osculation": "2459000.5",
        "eccentricity": ".5266236050290762",
        "semi_major_axis": "2.359407126690869",
        "inclination": "6.995255586425341",
        "ascending_node_longitude": "289.5655602691733",
        "orbital_period": "1323.740197779903",
        "perihelion_distance": "1.116887639901629",
        "perihelion_argument": "12.39183946999365",
        "aphelion_distance": "3.60192661348011",
        "perihelion_time": "2459644.940512409568",
        "mean_anomaly": "184.7400926129324",
        "mean_motion": ".2719566880296981",
        "equinox": "J2000",
        "orbit_class": {
            "orbit_class_type": "AMO",
            "orbit_class_description": "Near-Earth asteroid orbits similar to that of 1221 Amor",
            "orbit_class_range": "1.017 AU < q (perihelion) < 1.3 AU"
        }
    },
    "is_sentry_object": false
}